[{"OBJECT_NAME":"ION SCV-011","OBJECT_ID":"2023-084AB","EPOCH":"2026-03-09T22:35:16.566144","MEAN_MOTION":15.27752464,"ECCENTRICITY":0.00079323,"INCLINATION":98.1356,"RA_OF_ASC_NODE":247.1056,"ARG_OF_PERICENTER":30.3898,"MEAN_ANOMALY":329.7798,"EPHEMERIS_TYPE":0,"CLASSIFICATION_TYPE":"U","NORAD_CAT_ID":56957,"ELEMENT_SET_NO":999,"REV_AT_EPOCH":15065,"BSTAR":0.0002590454,"MEAN_MOTION_DOT":6.943e-5,"MEAN_MOTION_DDOT":0},{"OBJECT_NAME":"STARLINK-31068","OBJECT_ID":"2023-203F","EPOCH":"2026-03-09T01:17:27.349728","MEAN_MOTION":15.27576051,"ECCENTRICITY":0.00012215,"INCLINATION":43.0055,"RA_OF_ASC_NODE":70.7252,"ARG_OF_PERICENTER":274.9229,"MEAN_ANOMALY":85.1484,"EPHEMERIS_TYPE":0,"CLASSIFICATION_TYPE":"U","NORAD_CAT_ID":58623,"ELEMENT_SET_NO":999,"REV_AT_EPOCH":12346,"BSTAR":1.2724311e-5,"MEAN_MOTION_DOT":8.8e-7,"MEAN_MOTION_DDOT":0}]
